{"fetched_at": "2026-03-14T06:13:15.092258+00:00", "count": 376, "satellites": [ {"name": "SHENZHOU-22", "tle1": "1 66645U 25272A   26072.74677078  .00031927  00000+0  37303-3 0  9998", "tle2": "2 66645  41.4663 183.4723 0006740 298.0497  61.9660 15.60891715267520", "norad_id": 66645, "group": "stations", "highlight": false}, {"name": "SOYUZ-MS 28", "tle1": "1 66664U 25275A   26072.70791847  .00011780  00000+0  22432-3 0  9991", "tle2": "2 66664  51.6324  52.4887 0007884 189.2977 170.7866 15.48633802554521", "norad_id": 66664, "group": "stations", "highlight": false}, {"name": "DUPLEX", "tle1": "1 66906U 98067XS  26072.43875425  .00030156  00000+0  42283-3 0  9998", "tle2": "2 66906  51.6291  50.6945 0002664 127.4743 232.6492 15.56488826 15713", "norad_id": 66906, "group": "stations", "highlight": false}, {"name": "ISS OBJECT XT", "tle1": "1 66907U 98067XT  26072.33859250  .00173594  00000+0  13595-2 0  9993", "tle2": "2 66907  51.6247  47.0068 0004699 104.7322 255.4197 15.70505609 15756", "norad_id": 66907, "group": "stations", "highlight": true}, {"name": "ISS OBJECT XU", "tle1": "1 66908U 98067XU  26072.46373896  .00167250  00000+0  13010-2 0  9999", "tle2": "2 66908  51.6245  46.3387 0004897 107.7206 252.4326 15.70686547 15779", "norad_id": 66908, "group": "stations", "highlight": true}, {"name": "SILVERSAT", "tle1": "1 66909U 98067XV  26072.33066969  .00228210  00000+0  15396-2 0  9999", "tle2": "2 66909  51.6245  46.1985 0005406 105.6574 254.5022 15.73849745 15763", "norad_id": 66909, "group": "stations", "highlight": false}, {"name": "ISS OBJECT XW", "tle1": "1 66910U 98067XW  26072.20779928  .00156438  00000+0  12699-2 0  9998", "tle2": "2 66910  51.6244  47.6269 0005316 107.7849 252.3729 15.69697037 15730", "norad_id": 66910, "group": "stations", "highlight": true}, {"name": "ISS OBJECT XX", "tle1": "1 66911U 98067XX  26072.19322328  .00295789  00000+0  16950-2 0  9992", "tle2": "2 66911  51.6209  46.0092 0006894 108.6914 251.4835 15.77377567 15745", "norad_id": 66911, "group": "stations", "highlight": true}, {"name": "ISS OBJECT XY", "tle1": "1 66912U 98067XY  26072.28746810  .00099603  00000+0  10103-2 0  9990", "tle2": "2 66912  51.6270  48.9278 0003415 112.5167 247.6190 15.64420991 15715", "norad_id": 66912, "group": "stations", "highlight": true}, {"name": "KNACKSAT-2", "tle1": "1 67683U 98067XZ  26072.20473437  .00041086  00000+0  67024-3 0  9997", "tle2": "2 67683  51.6314  54.3798 0009479 198.5087 161.5560 15.52132550  5339", "norad_id": 67683, "group": "stations", "highlight": false}, {"name": "GXIBA-1", "tle1": "1 67684U 98067YA  26072.94269073  .00092080  00000+0  13325-2 0  9992", "tle2": "2 67684  51.6303  50.3088 0011454 190.0638 170.0125 15.55060331  5456", "norad_id": 67684, "group": "stations", "highlight": false}, {"name": "CORAL", "tle1": "1 67685U 98067YB  26072.32817294  .00046607  00000+0  74702-3 0  9990", "tle2": "2 67685  51.6311  53.7042 0011384 195.2471 164.8178 15.52544385  5358", "norad_id": 67685, "group": "stations", "highlight": false}, {"name": "ISS OBJECT YC", "tle1": "1 67686U 98067YC  26072.90037223  .00062612  00000+0  97597-3 0  9992", "tle2": "2 67686  51.6310  50.7781 0008200 165.4316 194.6912 15.53224204  5448", "norad_id": 67686, "group": "stations", "highlight": true}, {"name": "LEOPARD", "tle1": "1 67687U 98067YD  26072.91010600  .00044954  00000+0  72589-3 0  9997", "tle2": "2 67687  51.6314  50.8421 0008040 169.2788 190.8374 15.52390436  5363", "norad_id": 67687, "group": "stations", "highlight": false}, {"name": "ISS OBJECT YE", "tle1": "1 67688U 98067YE  26072.32442635  .00054923  00000+0  86880-3 0  9996", "tle2": "2 67688  51.6312  53.6814 0008075 164.1724 195.9520 15.52874098  5271", "norad_id": 67688, "group": "stations", "highlight": true}, {"name": "CREW DRAGON 12", "tle1": "1 67796U 26031A   26072.70791847  .00011780  00000+0  22432-3 0  9999", "tle2": "2 67796  51.6324  52.4887 0007884 189.2977 170.7866 15.48633802556856", "norad_id": 67796, "group": "stations", "highlight": false}]}